[{"OBJECT_NAME":"STARLINK-30256","OBJECT_ID":"2023-115B","EPOCH":"2026-03-09T04:55:32.299680","MEAN_MOTION":15.26726159,"ECCENTRICITY":0.00017429,"INCLINATION":43.0014,"RA_OF_ASC_NODE":4.6316,"ARG_OF_PERICENTER":264.2228,"MEAN_ANOMALY":95.8424,"EPHEMERIS_TYPE":0,"CLASSIFICATION_TYPE":"U","NORAD_CAT_ID":57522,"ELEMENT_SET_NO":999,"REV_AT_EPOCH":14227,"BSTAR":-0.00019068612,"MEAN_MOTION_DOT":-5.369e-5,"MEAN_MOTION_DDOT":0},{"OBJECT_NAME":"OBJECT H","OBJECT_ID":"2025-155H","EPOCH":"2026-03-09T22:09:58.611456","MEAN_MOTION":15.27590961,"ECCENTRICITY":0.00081993,"INCLINATION":97.4482,"RA_OF_ASC_NODE":37.3122,"ARG_OF_PERICENTER":152.0629,"MEAN_ANOMALY":208.1051,"EPHEMERIS_TYPE":0,"CLASSIFICATION_TYPE":"U","NORAD_CAT_ID":64883,"ELEMENT_SET_NO":999,"REV_AT_EPOCH":6559,"BSTAR":0.00050403256,"MEAN_MOTION_DOT":0.00013547,"MEAN_MOTION_DDOT":0}]
